STARLINK-2195           
1 47772U 21017BC  23318.56671616 -.00002360  00000+0 -13962-3 0  9999
2 47772  53.0572  60.0156 0001167  94.6175 265.4948 15.06400591149425
STARLINK-2196           
1 47773U 21017BD  23318.49668237  .00000880  00000+0  77939-4 0  9995
2 47773  53.0548  60.3252 0001249  75.4758 284.6369 15.06407948150047
STARLINK-2197           
1 47774U 21017BE  23318.55933237  .00009105  00000+0  62900-3 0  9998
2 47774  53.0547  60.0455 0001513  87.4007 272.7155 15.06422779149423
STARLINK-2198           
1 47775U 21017BF  23318.57040480  .00001048  00000+0  89254-4 0  9990
2 47775  53.0557  59.9948 0001313  85.0190 275.0949 15.06400435149437
STARLINK-2209           
1 47776U 21017BG  23318.99521101 -.00000417  00000+0 -90844-5 0  9990
2 47776  53.0547  48.0888 0001078  96.0932 264.0180 15.06398362149635
STARLINK-2210           
1 47777U 21017BH  23318.53444689  .00004664  00000+0  33157-3 0  9994
2 47777  53.0558  50.1577 0001452  88.8383 271.2772 15.06425818150212
STARLINK-2211           
1 47778U 21017BJ  23318.96571346  .00004770  00000+0  33887-3 0  9991
2 47778  53.0552  48.2183 0001700  78.7667 281.3513 15.06405079149633
STARLINK-2213           
1 47780U 21017BL  23318.52710790 -.00001264  00000+0 -66002-4 0  9997
2 47780  53.0553  50.1914 0001439  95.5069 264.6084 15.06389152150242
STARLINK-2223           
1 47781U 21017BM  23318.95834493 -.00001413  00000+0 -75964-4 0  9995
2 47781  53.0562  48.2540 0002116  76.3035 283.8190 15.06399961149629
STARLINK-2257           
1 47787U 21018A   23318.64503535  .00003089  00000+0  22611-3 0  9997
2 47787  53.0546  89.6625 0001360  90.7394 269.3751 15.06408628149070
STARLINK-2314           
1 47788U 21018B   23318.59021683  .00000057  00000+0  22745-4 0  9992
2 47788  53.0550  64.9060 0001481  86.8279 273.2880 15.06401257149435
STARLINK-2315           
1 47789U 21018C   23318.57316723 -.00003095  00000+0 -18900-3 0  9997
2 47789  53.0545  69.9864 0001316  85.5516 274.5623 15.06397555149359
STARLINK-2319           
1 47790U 21018D   23318.54828769 -.00001752  00000+0 -98737-4 0  9999
2 47790  53.0546  60.0963 0001316  91.4912 268.6228 15.06397870149490
