[
    {
        "OBJECT_NAME": "STARLINK-2195",
        "OBJECT_ID": "2021-017BC",
        "EPOCH": "2023-11-14T13:36:04.276224",
        "MEAN_MOTION": 15.06400591,
        "ECCENTRICITY": 0.0001167,
        "INCLINATION": 53.0572,
        "RA_OF_ASC_NODE": 60.0156,
        "ARG_OF_PERICENTER": 94.6175,
        "MEAN_ANOMALY": 265.4948,
        "EPHEMERIS_TYPE": 0,
        "CLASSIFICATION_TYPE": "U",
        "NORAD_CAT_ID": 47772,
        "ELEMENT_SET_NO": 999,
        "REV_AT_EPOCH": 14942,
        "BSTAR": -0.00013962,
        "MEAN_MOTION_DOT": -2.36e-5,
        "MEAN_MOTION_DDOT": 0
    },
    {
        "OBJECT_NAME": "STARLINK-2196",
        "OBJECT_ID": "2021-017BD",
        "EPOCH": "2023-11-14T11:55:13.356768",
        "MEAN_MOTION": 15.06407948,
        "ECCENTRICITY": 0.0001249,
        "INCLINATION": 53.0548,
        "RA_OF_ASC_NODE": 60.3252,
        "ARG_OF_PERICENTER": 75.4758,
        "MEAN_ANOMALY": 284.6369,
        "EPHEMERIS_TYPE": 0,
        "CLASSIFICATION_TYPE": "U",
        "NORAD_CAT_ID": 47773,
        "ELEMENT_SET_NO": 999,
        "REV_AT_EPOCH": 15004,
        "BSTAR": 7.7939e-5,
        "MEAN_MOTION_DOT": 8.8e-6,
        "MEAN_MOTION_DDOT": 0
    },
    {
        "OBJECT_NAME": "STARLINK-2197",
        "OBJECT_ID": "2021-017BE",
        "EPOCH": "2023-11-14T13:25:26.316768",
        "MEAN_MOTION": 15.06422779,
        "ECCENTRICITY": 0.0001513,
        "INCLINATION": 53.0547,
        "RA_OF_ASC_NODE": 60.0455,
        "ARG_OF_PERICENTER": 87.4007,
        "MEAN_ANOMALY": 272.7155,
        "EPHEMERIS_TYPE": 0,
        "CLASSIFICATION_TYPE": "U",
        "NORAD_CAT_ID": 47774,
        "ELEMENT_SET_NO": 999,
        "REV_AT_EPOCH": 14942,
        "BSTAR": 0.000629,
        "MEAN_MOTION_DOT": 9.105e-5,
        "MEAN_MOTION_DDOT": 0
    },
    {
        "OBJECT_NAME": "STARLINK-2198",
        "OBJECT_ID": "2021-017BF",
        "EPOCH": "2023-11-14T13:41:22.974720",
        "MEAN_MOTION": 15.06400435,
        "ECCENTRICITY": 0.0001313,
        "INCLINATION": 53.0557,
        "RA_OF_ASC_NODE": 59.9948,
        "ARG_OF_PERICENTER": 85.019,
        "MEAN_ANOMALY": 275.0949,
        "EPHEMERIS_TYPE": 0,
        "CLASSIFICATION_TYPE": "U",
        "NORAD_CAT_ID": 47775,
        "ELEMENT_SET_NO": 999,
        "REV_AT_EPOCH": 14943,
        "BSTAR": 8.9254e-5,
        "MEAN_MOTION_DOT": 1.048e-5,
        "MEAN_MOTION_DDOT": 0
    },
    {
        "OBJECT_NAME": "STARLINK-2209",
        "OBJECT_ID": "2021-017BG",
        "EPOCH": "2023-11-14T23:53:06.231264",
        "MEAN_MOTION": 15.06398362,
        "ECCENTRICITY": 0.0001078,
        "INCLINATION": 53.0547,
        "RA_OF_ASC_NODE": 48.0888,
        "ARG_OF_PERICENTER": 96.0932,
        "MEAN_ANOMALY": 264.018,
        "EPHEMERIS_TYPE": 0,
        "CLASSIFICATION_TYPE": "U",
        "NORAD_CAT_ID": 47776,
        "ELEMENT_SET_NO": 999,
        "REV_AT_EPOCH": 14963,
        "BSTAR": -9.0844e-6,
        "MEAN_MOTION_DOT": -4.17e-6,
        "MEAN_MOTION_DDOT": 0
    },
    {
        "OBJECT_NAME": "STARLINK-2210",
        "OBJECT_ID": "2021-017BH",
        "EPOCH": "2023-11-14T12:49:36.211296",
        "MEAN_MOTION": 15.06425818,
        "ECCENTRICITY": 0.0001452,
        "INCLINATION": 53.0558,
        "RA_OF_ASC_NODE": 50.1577,
        "ARG_OF_PERICENTER": 88.8383,
        "MEAN_ANOMALY": 271.2772,
        "EPHEMERIS_TYPE": 0,
        "CLASSIFICATION_TYPE": "U",
        "NORAD_CAT_ID": 47777,
        "ELEMENT_SET_NO": 999,
        "REV_AT_EPOCH": 15021,
        "BSTAR": 0.00033157,
        "MEAN_MOTION_DOT": 4.664e-5,
        "MEAN_MOTION_DDOT": 0
    },
    {
        "OBJECT_NAME": "STARLINK-2211",
        "OBJECT_ID": "2021-017BJ",
        "EPOCH": "2023-11-14T23:10:37.642944",
        "MEAN_MOTION": 15.06405079,
        "ECCENTRICITY": 0.00017,
        "INCLINATION": 53.0552,
        "RA_OF_ASC_NODE": 48.2183,
        "ARG_OF_PERICENTER": 78.7667,
        "MEAN_ANOMALY": 281.3513,
        "EPHEMERIS_TYPE": 0,
        "CLASSIFICATION_TYPE": "U",
        "NORAD_CAT_ID": 47778,
        "ELEMENT_SET_NO": 999,
        "REV_AT_EPOCH": 14963,
        "BSTAR": 0.00033887,
        "MEAN_MOTION_DOT": 4.77e-5,
        "MEAN_MOTION_DDOT": 0
    },
    {
        "OBJECT_NAME": "STARLINK-2213",
        "OBJECT_ID": "2021-017BL",
        "EPOCH": "2023-11-14T12:39:02.122560",
        "MEAN_MOTION": 15.06389152,
        "ECCENTRICITY": 0.0001439,
        "INCLINATION": 53.0553,
        "RA_OF_ASC_NODE": 50.1914,
        "ARG_OF_PERICENTER": 95.5069,
        "MEAN_ANOMALY": 264.6084,
        "EPHEMERIS_TYPE": 0,
        "CLASSIFICATION_TYPE": "U",
        "NORAD_CAT_ID": 47780,
        "ELEMENT_SET_NO": 999,
        "REV_AT_EPOCH": 15024,
        "BSTAR": -6.6002e-5,
        "MEAN_MOTION_DOT": -1.264e-5,
        "MEAN_MOTION_DDOT": 0
    },
    {
        "OBJECT_NAME": "STARLINK-2223",
        "OBJECT_ID": "2021-017BM",
        "EPOCH": "2023-11-14T23:00:01.001952",
        "MEAN_MOTION": 15.06399961,
        "ECCENTRICITY": 0.0002116,
        "INCLINATION": 53.0562,
        "RA_OF_ASC_NODE": 48.254,
        "ARG_OF_PERICENTER": 76.3035,
        "MEAN_ANOMALY": 283.819,
        "EPHEMERIS_TYPE": 0,
        "CLASSIFICATION_TYPE": "U",
        "NORAD_CAT_ID": 47781,
        "ELEMENT_SET_NO": 999,
        "REV_AT_EPOCH": 14962,
        "BSTAR": -7.5964e-5,
        "MEAN_MOTION_DOT": -1.413e-5,
        "MEAN_MOTION_DDOT": 0
    },
    {
        "OBJECT_NAME": "STARLINK-2257",
        "OBJECT_ID": "2021-018A",
        "EPOCH": "2023-11-14T15:28:51.054240",
        "MEAN_MOTION": 15.06408628,
        "ECCENTRICITY": 0.000136,
        "INCLINATION": 53.0546,
        "RA_OF_ASC_NODE": 89.6625,
        "ARG_OF_PERICENTER": 90.7394,
        "MEAN_ANOMALY": 269.3751,
        "EPHEMERIS_TYPE": 0,
        "CLASSIFICATION_TYPE": "U",
        "NORAD_CAT_ID": 47787,
        "ELEMENT_SET_NO": 999,
        "REV_AT_EPOCH": 14907,
        "BSTAR": 0.00022611,
        "MEAN_MOTION_DOT": 3.089e-5,
        "MEAN_MOTION_DDOT": 0
    },
    {
        "OBJECT_NAME": "STARLINK-2314",
        "OBJECT_ID": "2021-018B",
        "EPOCH": "2023-11-14T14:09:54.734112",
        "MEAN_MOTION": 15.06401257,
        "ECCENTRICITY": 0.0001481,
        "INCLINATION": 53.055,
        "RA_OF_ASC_NODE": 64.906,
        "ARG_OF_PERICENTER": 86.8279,
        "MEAN_ANOMALY": 273.288,
        "EPHEMERIS_TYPE": 0,
        "CLASSIFICATION_TYPE": "U",
        "NORAD_CAT_ID": 47788,
        "ELEMENT_SET_NO": 999,
        "REV_AT_EPOCH": 14943,
        "BSTAR": 2.2745e-5,
        "MEAN_MOTION_DOT": 5.7e-7,
        "MEAN_MOTION_DDOT": 0
    },
    {
        "OBJECT_NAME": "STARLINK-2315",
        "OBJECT_ID": "2021-018C",
        "EPOCH": "2023-11-14T13:45:21.648672",
        "MEAN_MOTION": 15.06397555,
        "ECCENTRICITY": 0.0001316,
        "INCLINATION": 53.0545,
        "RA_OF_ASC_NODE": 69.9864,
        "ARG_OF_PERICENTER": 85.5516,
        "MEAN_ANOMALY": 274.5623,
        "EPHEMERIS_TYPE": 0,
        "CLASSIFICATION_TYPE": "U",
        "NORAD_CAT_ID": 47789,
        "ELEMENT_SET_NO": 999,
        "REV_AT_EPOCH": 14935,
        "BSTAR": -0.000189,
        "MEAN_MOTION_DOT": -3.095e-5,
        "MEAN_MOTION_DDOT": 0
    },
    {
        "OBJECT_NAME": "STARLINK-2319",
        "OBJECT_ID": "2021-018D",
        "EPOCH": "2023-11-14T13:09:32.056416",
        "MEAN_MOTION": 15.0639787,
        "ECCENTRICITY": 0.0001316,
        "INCLINATION": 53.0546,
        "RA_OF_ASC_NODE": 60.0963,
        "ARG_OF_PERICENTER": 91.4912,
        "MEAN_ANOMALY": 268.6228,
        "EPHEMERIS_TYPE": 0,
        "CLASSIFICATION_TYPE": "U",
        "NORAD_CAT_ID": 47790,
        "ELEMENT_SET_NO": 999,
        "REV_AT_EPOCH": 14949,
        "BSTAR": -9.8737e-5,
        "MEAN_MOTION_DOT": -1.752e-5,
        "MEAN_MOTION_DDOT": 0
    }
]
